{
"type": "FeatureCollection",
"name": "islas",
"crs": { "type": "name", "properties": { "name": "urn:ogc:def:crs:OGC:1.3:CRS84" } },
"xy_coordinate_resolution": 1e-05,
"features": [
{ "type": "Feature", "properties": { "isla": "Gorgona", "dpto_ccdgo": "19", "mpio_cdpmp": "19318", "dpto_cnmbr": "CAUCA", "mpio_cnmbr": "GUAPI" }, "geometry": { "type": "Polygon", "coordinates": [ [ [ -78.18661, 2.99037 ], [ -78.17264, 3.0025 ], [ -78.16427, 3.0016 ], [ -78.16613, 2.98762 ], [ -78.16613, 2.97365 ], [ -78.16709, 2.9597 ], [ -78.18203, 2.94293 ], [ -78.19322, 2.93362 ], [ -78.20816, 2.92989 ], [ -78.22029, 2.93362 ], [ -78.22029, 2.94387 ], [ -78.20442, 2.94573 ], [ -78.19972, 2.96062 ], [ -78.19503, 2.98016 ], [ -78.18661, 2.99037 ] ] ] } },
{ "type": "Feature", "properties": { "isla": "Malpelo", "dpto_ccdgo": "76", "mpio_cdpmp": "76109", "dpto_cnmbr": "VALLE DEL CAUCA", "mpio_cnmbr": "BUENAVENTURA" }, "geometry": { "type": "Polygon", "coordinates": [ [ [ -81.61172, 3.95897 ], [ -81.61531, 3.96133 ], [ -81.61632, 3.96381 ], [ -81.61465, 3.96918 ], [ -81.60985, 3.97492 ], [ -81.60411, 3.97687 ], [ -81.60241, 3.97956 ], [ -81.60143, 3.98835 ], [ -81.59618, 3.9912 ], [ -81.59057, 3.99046 ], [ -81.58519, 3.99238 ], [ -81.58227, 3.99152 ], [ -81.57873, 3.97818 ], [ -81.58031, 3.97602 ], [ -81.58487, 3.97459 ], [ -81.58902, 3.97028 ], [ -81.59423, 3.97077 ], [ -81.60631, 3.96019 ], [ -81.61172, 3.95897 ] ] ] } },
{ "type": "Feature", "properties": { "isla": "Roncador", "dpto_ccdgo": "88", "mpio_cdpmp": "88001", "dpto_cnmbr": "ARCHIPIÉLAGO DE SAN ANDRÉS, PROVIDENCIA Y SANTA CATALINA", "mpio_cnmbr": "SAN ANDRÉS" }, "geometry": { "type": "Polygon", "coordinates": [ [ [ -80.08992, 13.57836 ], [ -80.08992, 13.5777 ], [ -80.08934, 13.57787 ], [ -80.08943, 13.57685 ], [ -80.0904, 13.57661 ], [ -80.0904, 13.5773 ], [ -80.09089, 13.57709 ], [ -80.09089, 13.57803 ], [ -80.08992, 13.57836 ] ] ] } }
]
}
